start=new Date('2023-02-01T00:00:00.000Z').valueOf();
sats=[{"PERIAPSIS":"546.016","TLE_LINE1":"1 47979U 21024C   23031.77392653  .00002728  00000-0  20196-3 0  9996","TLE_LINE2":"2 47979  53.0545 317.4928 0001729 101.1863 258.9321 15.06400194104716","REV_AT_EPOCH":"10471","CLASSIFICATION_TYPE":"U","ELEMENT_SET_NO":"999","RCS_SIZE":"LARGE","FILE":"3766747","EPOCH":"2023-01-31T18:34:27.252192","MEAN_ELEMENT_THEORY":"SGP4","GP_ID":"224125133","MEAN_MOTION":"15.06400194","MEAN_MOTION_DDOT":"0.0000000000000","MEAN_MOTION_DOT":"0.00002728","PERIOD":"95.592","EPHEMERIS_TYPE":"0","BSTAR":"0.00020196000000","OBJECT_NAME":"STARLINK-2325","CENTER_NAME":"EARTH","OBJECT_ID":"2021-024C","LAUNCH_DATE":"2021-03-24","OBJECT_TYPE":"PAYLOAD","INCLINATION":"53.0545","ECCENTRICITY":"0.00017290","ARG_OF_PERICENTER":"101.1863","COUNTRY_CODE":"US","RA_OF_ASC_NODE":"317.4928","APOAPSIS":"548.410","DECAY_DATE":null,"SITE":"AFETR","TIME_SYSTEM":"UTC","MEAN_ANOMALY":"258.9321","REF_FRAME":"TEME","NORAD_CAT_ID":"47979","SEMIMAJOR_AXIS":"6925.348"},{"EPOCH":"2023-01-31T04:43:48.507744","FILE":"3766069","GP_ID":"224063456","MEAN_ELEMENT_THEORY":"SGP4","TLE_LINE2":"2 47980  53.0520 300.1965 0001374  88.2714 271.8432 15.06405362104378","REV_AT_EPOCH":"10437","PERIAPSIS":"546.246","TLE_LINE1":"1 47980U 21024D   23031.19708921  .00003003  00000-0  22039-3 0  9998","ELEMENT_SET_NO":"999","RCS_SIZE":"LARGE","CLASSIFICATION_TYPE":"U","PERIOD":"95.592","EPHEMERIS_TYPE":"0","MEAN_MOTION_DOT":"0.00003003","BSTAR":"0.00022039000000","OBJECT_NAME":"STARLINK-2312","MEAN_MOTION":"15.06405362","MEAN_MOTION_DDOT":"0.0000000000000","INCLINATION":"53.0520","ECCENTRICITY":"0.00013740","RA_OF_ASC_NODE":"300.1965","ARG_OF_PERICENTER":"88.2714","COUNTRY_CODE":"US","OBJECT_ID":"2021-024D","LAUNCH_DATE":"2021-03-24","CENTER_NAME":"EARTH","OBJECT_TYPE":"PAYLOAD","MEAN_ANOMALY":"271.8432","TIME_SYSTEM":"UTC","SEMIMAJOR_AXIS":"6925.332","NORAD_CAT_ID":"47980","REF_FRAME":"TEME","APOAPSIS":"548.149","SITE":"AFETR","DECAY_DATE":null},{"OBJECT_TYPE":"PAYLOAD","CENTER_NAME":"EARTH","LAUNCH_DATE":"2021-03-24","OBJECT_ID":"2021-024E","COUNTRY_CODE":"US","ARG_OF_PERICENTER":"100.9314","RA_OF_ASC_NODE":"24.3240","ECCENTRICITY":"0.00013380","INCLINATION":"53.0561","DECAY_DATE":null,"SITE":"AFETR","APOAPSIS":"548.140","REF_FRAME":"TEME","NORAD_CAT_ID":"47981","SEMIMAJOR_AXIS":"6925.349","TIME_SYSTEM":"UTC","MEAN_ANOMALY":"259.1825","CLASSIFICATION_TYPE":"U","RCS_SIZE":"LARGE","ELEMENT_SET_NO":"999","TLE_LINE1":"1 47981U 21024E   23031.36063799  .00000772  00000-0  70726-4 0  9992","PERIAPSIS":"546.287","REV_AT_EPOCH":"10374","TLE_LINE2":"2 47981  53.0561  24.3240 0001338 100.9314 259.1825 15.06399896103742","MEAN_ELEMENT_THEORY":"SGP4","GP_ID":"224095272","FILE":"3766475","EPOCH":"2023-01-31T08:39:19.122336","MEAN_MOTION_DDOT":"0.0000000000000","MEAN_MOTION":"15.06399896","OBJECT_NAME":"STARLINK-2303","BSTAR":"0.00007072600000","MEAN_MOTION_DOT":"0.00000772","EPHEMERIS_TYPE":"0","PERIOD":"95.592"},{"ECCENTRICITY":"0.00013240","INCLINATION":"53.0523","RA_OF_ASC_NODE":"312.3394","COUNTRY_CODE":"US","ARG_OF_PERICENTER":"91.9460","LAUNCH_DATE":"2021-03-24","OBJECT_ID":"2021-024F","CENTER_NAME":"EARTH","OBJECT_TYPE":"PAYLOAD","MEAN_ANOMALY":"268.1681","TIME_SYSTEM":"UTC","SEMIMAJOR_AXIS":"6925.349","REF_FRAME":"TEME","NORAD_CAT_ID":"47982","APOAPSIS":"548.131","SITE":"AFETR","DECAY_DATE":null,"EPOCH":"2023-01-31T19:20:13.761312","FILE":"3766747","GP_ID":"224124883","MEAN_ELEMENT_THEORY":"SGP4","REV_AT_EPOCH":"10473","TLE_LINE2":"2 47982  53.0523 312.3394 0001324  91.9460 268.1681 15.06399953104731","TLE_LINE1":"1 47982U 21024F   23031.80571483  .00000080  00000-0  24288-4 0  9990","PERIAPSIS":"546.297","RCS_SIZE":"LARGE","ELEMENT_SET_NO":"999","CLASSIFICATION_TYPE":"U","EPHEMERIS_TYPE":"0","PERIOD":"95.592","MEAN_MOTION_DOT":"0.00000080","OBJECT_NAME":"STARLINK-2317","BSTAR":"0.00002428800000","MEAN_MOTION_DDOT":"0.0000000000000","MEAN_MOTION":"15.06399953"},{"MEAN_ELEMENT_THEORY":"SGP4","GP_ID":"224094279","FILE":"3766475","EPOCH":"2023-01-31T05:07:41.868192","CLASSIFICATION_TYPE":"U","ELEMENT_SET_NO":"999","RCS_SIZE":"LARGE","PERIAPSIS":"546.328","TLE_LINE1":"1 47985U 21024J   23031.21367903  .00001833  00000-0  14192-3 0  9997","TLE_LINE2":"2 47985  53.0527 320.1635 0001264 101.0029 259.1102 15.06403225104567","REV_AT_EPOCH":"10456","BSTAR":"0.00014192000000","OBJECT_NAME":"STARLINK-2308","MEAN_MOTION_DOT":"0.00001833","PERIOD":"95.592","EPHEMERIS_TYPE":"0","MEAN_MOTION":"15.06403225","MEAN_MOTION_DDOT":"0.0000000000000","ARG_OF_PERICENTER":"101.0029","COUNTRY_CODE":"US","RA_OF_ASC_NODE":"320.1635","INCLINATION":"53.0527","ECCENTRICITY":"0.00012640","OBJECT_TYPE":"PAYLOAD","CENTER_NAME":"EARTH","OBJECT_ID":"2021-024J","LAUNCH_DATE":"2021-03-24","NORAD_CAT_ID":"47985","REF_FRAME":"TEME","SEMIMAJOR_AXIS":"6925.339","TIME_SYSTEM":"UTC","MEAN_ANOMALY":"259.1102","DECAY_DATE":null,"SITE":"AFETR","APOAPSIS":"548.079"},{"MEAN_MOTION_DDOT":"0.0000000000000","MEAN_MOTION":"15.06411125","OBJECT_NAME":"STARLINK-2305","BSTAR":"0.00036862000000","MEAN_MOTION_DOT":"0.00005215","EPHEMERIS_TYPE":"0","PERIOD":"95.591","CLASSIFICATION_TYPE":"U","RCS_SIZE":"LARGE","ELEMENT_SET_NO":"999","TLE_LINE1":"1 47989U 21024N   23031.13303265  .00005215  00000-0  36862-3 0  9999","PERIAPSIS":"546.170","REV_AT_EPOCH":"10443","TLE_LINE2":"2 47989  53.0535 295.3684 0001457  99.3456 260.7698 15.06411125104436","MEAN_ELEMENT_THEORY":"SGP4","GP_ID":"224063663","FILE":"3766076","EPOCH":"2023-01-31T03:11:34.020960","DECAY_DATE":null,"SITE":"AFETR","APOAPSIS":"548.188","NORAD_CAT_ID":"47989","REF_FRAME":"TEME","SEMIMAJOR_AXIS":"6925.314","TIME_SYSTEM":"UTC","MEAN_ANOMALY":"260.7698","OBJECT_TYPE":"PAYLOAD","CENTER_NAME":"EARTH","LAUNCH_DATE":"2021-03-24","OBJECT_ID":"2021-024N","COUNTRY_CODE":"US","ARG_OF_PERICENTER":"99.3456","RA_OF_ASC_NODE":"295.3684","ECCENTRICITY":"0.00014570","INCLINATION":"53.0535"},{"SITE":"AFETR","DECAY_DATE":null,"APOAPSIS":"548.163","SEMIMAJOR_AXIS":"6925.351","NORAD_CAT_ID":"47990","REF_FRAME":"TEME","MEAN_ANOMALY":"267.2947","TIME_SYSTEM":"UTC","OBJECT_TYPE":"PAYLOAD","LAUNCH_DATE":"2021-03-24","OBJECT_ID":"2021-024P","CENTER_NAME":"EARTH","RA_OF_ASC_NODE":"292.5817","COUNTRY_CODE":"US","ARG_OF_PERICENTER":"92.8198","ECCENTRICITY":"0.00013670","INCLINATION":"53.0559","MEAN_MOTION_DDOT":"0.0000000000000","MEAN_MOTION":"15.06399134","OBJECT_NAME":"STARLINK-2307","BSTAR":"-0.00000444150000","EPHEMERIS_TYPE":"0","PERIOD":"95.592","MEAN_MOTION_DOT":"-0.00000348","RCS_SIZE":"LARGE","ELEMENT_SET_NO":"999","CLASSIFICATION_TYPE":"U","REV_AT_EPOCH":"10499","TLE_LINE2":"2 47990  53.0559 292.5817 0001367  92.8198 267.2947 15.06399134104997","TLE_LINE1":"1 47990U 21024P   23031.74858293 -.00000348  00000-0 -44415-5 0  9993","PERIAPSIS":"546.270","GP_ID":"224125636","MEAN_ELEMENT_THEORY":"SGP4","EPOCH":"2023-01-31T17:57:57.565152","FILE":"3766747"},{"OBJECT_ID":"2021-024Q","LAUNCH_DATE":"2021-03-24","CENTER_NAME":"EARTH","OBJECT_TYPE":"PAYLOAD","INCLINATION":"53.0511","ECCENTRICITY":"0.00013600","RA_OF_ASC_NODE":"307.5565","ARG_OF_PERICENTER":"94.4737","COUNTRY_CODE":"US","APOAPSIS":"548.160","SITE":"AFETR","DECAY_DATE":null,"MEAN_ANOMALY":"265.6407","TIME_SYSTEM":"UTC","SEMIMAJOR_AXIS":"6925.353","REF_FRAME":"TEME","NORAD_CAT_ID":"47991","TLE_LINE2":"2 47991  53.0511 307.5565 0001360  94.4737 265.6407 15.06398471104843","REV_AT_EPOCH":"10484","PERIAPSIS":"546.276","TLE_LINE1":"1 47991U 21024Q   23031.76010461  .00001865  00000-0  14404-3 0  9999","ELEMENT_SET_NO":"999","RCS_SIZE":"LARGE","CLASSIFICATION_TYPE":"U","EPOCH":"2023-01-31T18:14:33.038304","FILE":"3766747","GP_ID":"224124384","MEAN_ELEMENT_THEORY":"SGP4","MEAN_MOTION":"15.06398471","MEAN_MOTION_DDOT":"0.0000000000000","PERIOD":"95.592","EPHEMERIS_TYPE":"0","MEAN_MOTION_DOT":"0.00001865","BSTAR":"0.00014404000000","OBJECT_NAME":"STARLINK-2279"},{"TLE_LINE2":"2 47992  53.0509 302.5403 0001230  90.3036 269.8094 15.06399983104870","REV_AT_EPOCH":"10487","PERIAPSIS":"546.362","TLE_LINE1":"1 47992U 21024R   23031.78084496  .00000285  00000-0  37999-4 0  9991","ELEMENT_SET_NO":"999","RCS_SIZE":"LARGE","CLASSIFICATION_TYPE":"U","EPOCH":"2023-01-31T18:44:25.004544","FILE":"3766747","GP_ID":"224125134","MEAN_ELEMENT_THEORY":"SGP4","MEAN_MOTION":"15.06399983","MEAN_MOTION_DDOT":"0.0000000000000","PERIOD":"95.592","EPHEMERIS_TYPE":"0","MEAN_MOTION_DOT":"0.00000285","BSTAR":"0.00003799900000","OBJECT_NAME":"STARLINK-2229","OBJECT_ID":"2021-024R","LAUNCH_DATE":"2021-03-24","CENTER_NAME":"EARTH","OBJECT_TYPE":"PAYLOAD","INCLINATION":"53.0509","ECCENTRICITY":"0.00012300","RA_OF_ASC_NODE":"302.5403","ARG_OF_PERICENTER":"90.3036","COUNTRY_CODE":"US","APOAPSIS":"548.065","SITE":"AFETR","DECAY_DATE":null,"MEAN_ANOMALY":"269.8094","TIME_SYSTEM":"UTC","SEMIMAJOR_AXIS":"6925.349","NORAD_CAT_ID":"47992","REF_FRAME":"TEME"},{"DECAY_DATE":null,"SITE":"AFETR","APOAPSIS":"548.159","REF_FRAME":"TEME","NORAD_CAT_ID":"47993","SEMIMAJOR_AXIS":"6925.330","TIME_SYSTEM":"UTC","MEAN_ANOMALY":"267.7683","OBJECT_TYPE":"PAYLOAD","CENTER_NAME":"EARTH","OBJECT_ID":"2021-024S","LAUNCH_DATE":"2021-03-24","ARG_OF_PERICENTER":"92.3466","COUNTRY_CODE":"US","RA_OF_ASC_NODE":"342.1122","INCLINATION":"53.0541","ECCENTRICITY":"0.00013920","MEAN_MOTION":"15.06406175","MEAN_MOTION_DDOT":"0.0000000000000","BSTAR":"0.00036924000000","OBJECT_NAME":"STARLINK-2273","MEAN_MOTION_DOT":"0.00005223","PERIOD":"95.592","EPHEMERIS_TYPE":"0","CLASSIFICATION_TYPE":"U","ELEMENT_SET_NO":"999","RCS_SIZE":"LARGE","PERIAPSIS":"546.231","TLE_LINE1":"1 47993U 21024S   23031.85455481  .00005223  00000-0  36924-3 0  9999","TLE_LINE2":"2 47993  53.0541 342.1122 0001392  92.3466 267.7683 15.06406175104371","REV_AT_EPOCH":"10437","MEAN_ELEMENT_THEORY":"SGP4","GP_ID":"224125386","FILE":"3766747","EPOCH":"2023-01-31T20:30:33.535584"}];
